[{"OBJECT_NAME":"STARLINK-4030","OBJECT_ID":"2022-053AU","EPOCH":"2026-03-09T12:40:12.884160","MEAN_MOTION":15.08835058,"ECCENTRICITY":0.00012912,"INCLINATION":53.2175,"RA_OF_ASC_NODE":149.8407,"ARG_OF_PERICENTER":96.0311,"MEAN_ANOMALY":264.0828,"EPHEMERIS_TYPE":0,"CLASSIFICATION_TYPE":"U","NORAD_CAT_ID":52698,"ELEMENT_SET_NO":999,"REV_AT_EPOCH":21105,"BSTAR":5.8613354e-5,"MEAN_MOTION_DOT":6.45e-6,"MEAN_MOTION_DDOT":0},{"OBJECT_NAME":"OBJECT E","OBJECT_ID":"2025-013E","EPOCH":"2026-03-09T23:59:52.369152","MEAN_MOTION":15.10347623,"ECCENTRICITY":0.00085591,"INCLINATION":97.6477,"RA_OF_ASC_NODE":238.3736,"ARG_OF_PERICENTER":6.9171,"MEAN_ANOMALY":353.2174,"EPHEMERIS_TYPE":0,"CLASSIFICATION_TYPE":"U","NORAD_CAT_ID":62733,"ELEMENT_SET_NO":999,"REV_AT_EPOCH":6224,"BSTAR":0.00032920786,"MEAN_MOTION_DOT":5.34e-5,"MEAN_MOTION_DDOT":0}]
